COMMENT,ORIGINATOR,NORAD_CAT_ID,OBJECT_NAME,OBJECT_TYPE,CLASSIFICATION_TYPE,INTLDES,EPOCH,EPOCH_MICROSECONDS,MEAN_MOTION,ECCENTRICITY,INCLINATION,RA_OF_ASC_NODE,ARG_OF_PERICENTER,MEAN_ANOMALY,EPHEMERIS_TYPE,ELEMENT_SET_NO,REV_AT_EPOCH,BSTAR,MEAN_MOTION_DOT,MEAN_MOTION_DDOT,FILE,TLE_LINE0,TLE_LINE1,TLE_LINE2,OBJECT_ID,OBJECT_NUMBER,SEMIMAJOR_AXIS,PERIOD,APOGEE,PERIGEE
"GENERATED VIA SPACETRACK.ORG API","JSPOC","35009","FREGAT R/B","ROCKET BODY","U","09029B","2016-01-14 18:02:05","457120","2.34550261","0.7011358","64.7013","94.1956","263.523","19.4195","0","999","5627","0.0004717","5.5e-07","0","1980707","0 FREGAT R/B","1 35009U 09029B   16014.75145205 +.00000055 +00000-0 +47170-3 0  9990","2 35009 064.7013 094.1956 7011358 263.5230 019.4195 02.34550261056277","2009-029B","35009","23928.265","613.940","34327.094","773.167"
"GENERATED VIA SPACETRACK.ORG API","JSPOC","25736","MUBLCOM","PAYLOAD","U","99026B","2016-01-14 18:02:26","403936","14.4850536","0.0005453","97.7682","128.8471","183.539","176.5767","0","999","87798","0.00018185","6.44e-06","0","1980307","0 MUBLCOM","1 25736U 99026B   16014.75169449  .00000644  00000-0  18185-3 0  9996","2 25736  97.7682 128.8471 0005453 183.5390 176.5767 14.48505360877985","1999-026B","25736","7108.671","99.412","734.412","726.660"
"GENERATED VIA SPACETRACK.ORG API","JSPOC","26609","AMSAT OSCAR 40","PAYLOAD","U","00072B","2016-01-14 18:02:37","507200","1.25588158","0.7966793","9.1511","320.5884","301.909","4.976","0","999","6969","0","-2.29e-06","0","1980707","0 AMSAT OSCAR 40","1 26609U 00072B   16014.75182300 -.00000229 +00000-0 +00000-0 0  9994","2 26609 009.1511 320.5884 7966793 301.9090 004.9760 01.25588158069690","2000-072B","26609","36288.530","1146.604","58820.716","1000.074"
"GENERATED VIA SPACETRACK.ORG API","JSPOC","32953","YUBELEINY","PAYLOAD","U","08025A","2016-01-14 18:02:48","512832","12.43066382","0.0018802","82.5014","202.6729","340.5672","19.4685","0","999","34689","-1.362e-08","1e-07","0","1980352","0 YUBELEINY","1 32953U 08025A   16014.75195038  .00000010  00000-0 -13620-7 0  9998","2 32953  82.5014 202.6729 0018802 340.5672  19.4685 12.43066382346896","2008-025A","32953","7871.768","115.842","1508.433","1478.832"
"GENERATED VIA SPACETRACK.ORG API","JSPOC","18749","SL-14 R/B","ROCKET BODY","U","88001B","2016-01-14 18:03:16","454592","14.82998661","0.001786","82.5135","71.6275","218.2598","281.3186","0","999","51348","2.2258e-05","2.05e-06","0","1980288","0 SL-14 R/B","1 18749U 88001B   16014.75227378  .00000205  00000-0  22258-4 0  9999","2 18749  82.5135  71.6275 0017860 218.2598 281.3186 14.82998661513484","1988-001B","18749","6998.011","97.100","632.375","607.378"
"GENERATED VIA SPACETRACK.ORG API","JSPOC","28163","MOLNIYA 1-93","PAYLOAD","U","04005A","2016-01-14 18:03:16","678368","2.39405648","0.7253323","63.167","343.4173","244.0116","27.577","0","999","8737","0.00012615","0.00187712","0","1980484","0 MOLNIYA 1-93","1 28163U 04005A   16014.75227637  .00187712 -95531-5  12615-3 0  9993","2 28163  63.1670 343.4173 7253323 244.0116  27.5770  2.39405648 87377","2004-005A","28163","23603.636","601.489","34345.981","105.021"
"GENERATED VIA SPACETRACK.ORG API","JSPOC","40369","FENGYUN 2G AKM","ROCKET BODY","U","14090C","2016-01-14 18:04:23","181312","0.99581145","0.0043269","1.5651","274.8692","258.473","101.6433","0","999","372","0","2.6e-07","0","1980707","0 FENGYUN 2G AKM","1 40369U 14090C   16014.75304608 +.00000026 +00000-0 +00000-0 0  9999","2 40369 001.5651 274.8692 0043269 258.4730 101.6433 00.99581145003725","2014-090C","40369","42359.461","1446.056","36164.611","35798.041"
"GENERATED VIA SPACETRACK.ORG API","JSPOC","18665","COSMOS 1900","PAYLOAD","U","87101A","2016-01-14 18:06:20","400192","14.54363461","0.0045646","66.0824","206.6823","284.1027","75.5007","0","999","49484","1.7254e-05","-3e-07","0","1980313","0 COSMOS 1900","1 18665U 87101A   16014.75440278 -.00000030  00000-0  17254-4 0  9999","2 18665  66.0824 206.6823 0045646 284.1027  75.5007 14.54363461494840","1987-101A","18665","7089.569","99.012","743.795","679.073"
"GENERATED VIA SPACETRACK.ORG API","JSPOC","9941","MOLNIYA 3-7","PAYLOAD","U","77032A","2016-01-14 18:06:42","77088","2.00757817","0.7407282","61.8586","284.1227","253.0766","20.3795","0","999","28368","-0.0012803","-6.47e-06","0","1980476","0 MOLNIYA 3-7","1 09941U 77032A   16014.75465367 -.00000647  00000-0 -12803-2 0  9992","2 09941  61.8586 284.1227 7407282 253.0766  20.3795  2.00757817283684","1977-032A","9941","26543.215","717.282","39826.388","503.772"
"GENERATED VIA SPACETRACK.ORG API","JSPOC","40015","HODOYOSHI 3","PAYLOAD","U","14033F","2016-01-14 18:07:37","860384","14.77929732","0.0037846","97.9296","271.7627","154.9188","205.3872","0","999","8474","6.6282e-05","4.3e-06","0","1980355","0 HODOYOSHI 3","1 40015U 14033F   16014.75529931  .00000430  00000-0  66282-4 0  9999","2 40015  97.9296 271.7627 0037846 154.9188 205.3872 14.77929732 84741","2014-033F","40015","7014.003","97.433","662.413","609.323"
"GENERATED VIA SPACETRACK.ORG API","JSPOC","40016","SAUDISAT 4","PAYLOAD","U","14033G","2016-01-14 18:08:31","287552","14.7494155","0.0049045","97.9244","269.0611","158.5902","201.7373","0","999","8459","3.9979e-05","2.22e-06","0","1980386","0 SAUDISAT 4","1 40016U 14033G   16014.75591768  .00000222  00000-0  39979-4 0  9999","2 40016  97.9244 269.0611 0049045 158.5902 201.7373 14.74941550 84594","2014-033G","40016","7023.473","97.630","679.785","610.892"
"GENERATED VIA SPACETRACK.ORG API","JSPOC","40731","ATLAS 5 CENTAUR R/B","ROCKET BODY","U","15033B","2016-01-14 18:09:02","518560","1.90867658","0.023628","55.4584","60.5378","293.5558","64.0423","0","999","349","0","-4.2e-07","0","1980586","0 ATLAS 5 CENTAUR R/B","1 40731U 15033B   16014.75627915 -.00000042  00000-0  00000+0 0  9997","2 40731  55.4584  60.5378 0236280 293.5558  64.0423  1.90867658  3490","2015-033B","40731","27452.397","754.449","21722.907","20425.617"
"GENERATED VIA SPACETRACK.ORG API","JSPOC","25892","COSMOS 2366","PAYLOAD","U","99045A","2016-01-14 18:09:09","499680","13.74427622","0.0032211","82.9284","66.9089","162.4149","331.3206","0","999","82204","2.6561e-05","4.1e-07","0","1980319","0 COSMOS 2366","1 25892U 99045A   16014.75635995  .00000041  00000-0  26561-4 0  9993","2 25892  82.9284  66.9089 0032211 162.4149 331.3206 13.74427622822047","1999-045A","25892","7361.854","104.770","1007.433","960.006"
"GENERATED VIA SPACETRACK.ORG API","JSPOC","24298","SL-16 R/B","ROCKET BODY","U","96051B","2016-01-14 18:09:20","350656","14.12388115","0.0019231","70.8351","77.0667","237.5388","122.3873","0","999","99847","-1.5483e-06","-5.2e-07","0","1980283","0 SL-16 R/B","1 24298U 96051B   16014.75648554 -.00000052  00000-0 -15483-5 0  9997","2 24298  70.8351  77.0667 0019231 237.5388 122.3873 14.12388115998473","1996-051B","24298","7229.348","101.954","865.115","837.310"
"GENERATED VIA SPACETRACK.ORG API","JSPOC","32276","COSMOS 2432 (GLONASS)","PAYLOAD","U","07052B","2016-01-14 18:09:31","965408","2.13104229","0.0011353","65.2806","83.2115","332.1355","334.5603","0","999","6397","0.0001","-1.3e-07","0","1980311","0 COSMOS 2432 (GLONASS)","1 32276U 07052B   16014.75661997 -.00000013  00000-0  10000-3 0  9995","2 32276  65.2806  83.2115 0011353 332.1355 334.5603  2.13104229 63977","2007-052B","32276","25507.846","675.725","19158.670","19100.752"
"GENERATED VIA SPACETRACK.ORG API","JSPOC","20432","COSMOS 2056","PAYLOAD","U","90004A","2016-01-14 18:09:37","574496","14.33202464","0.0022839","74.0337","287.4877","187.7667","172.3134","0","999","35857","3.2058e-05","6.2e-07","0","1980332","0 COSMOS 2056","1 20432U 90004A   16014.75668489  .00000062  00000-0  32058-4 0  9999","2 20432  74.0337 287.4877 0022839 187.7667 172.3134 14.33202464358574","1990-004A","20432","7159.183","100.474","797.399","764.697"
"GENERATED VIA SPACETRACK.ORG API","JSPOC","40012","UNISAT 6","PAYLOAD","U","14033C","2016-01-14 18:09:38","47968","14.73145868","0.0059417","97.921","266.8718","161.3692","198.971","0","999","8445","0.00010588","6.5e-06","0","1980355","0 UNISAT 6","1 40012U 14033C   16014.75669037  .00000650  00000-0  10588-3 0  9999","2 40012  97.9210 266.8718 0059417 161.3692 198.9710 14.73145868 84452","2014-033C","40012","7029.180","97.749","692.810","609.279"
"GENERATED VIA SPACETRACK.ORG API","JSPOC","40070","MKA PN2 (RELEK)","PAYLOAD","U","14037B","2016-01-14 18:10:11","266176","14.51803735","0.0137191","98.3027","72.4644","321.5447","37.6032","0","999","8052","4.9219e-05","1.7e-06","0","1980366","0 MKA PN2 (RELEK)","1 40070U 14037B   16014.75707484  .00000170  00000-0  49219-4 0  9997","2 40070  98.3027  72.4644 0137191 321.5447  37.6032 14.51803735 80520","2014-037B","40070","7097.900","99.186","817.142","622.388"
"GENERATED VIA SPACETRACK.ORG API","JSPOC","18960","IRS 1A","PAYLOAD","U","88021A","2016-01-14 18:10:20","697600","13.96715737","0.001425","99.3428","59.179","196.6768","299.2631","0","999","32203","-0.00015193","-2.57e-06","0","1980340","0 IRS 1A","1 18960U 88021A   16014.75718400 -.00000257  00000-0 -15193-3 0  9995","2 18960  99.3428  59.1790 0014250 196.6768 299.2631 13.96715737322038","1988-021A","18960","7283.327","103.099","915.570","894.813"
"GENERATED VIA SPACETRACK.ORG API","JSPOC","21576","ORBCOMM-X","PAYLOAD","U","91050C","2016-01-14 18:10:29","897472","14.41329439","0.0004667","98.7457","22.8856","68.6899","291.4787","0","999","28643","5.6155e-05","1.35e-06","0","1980325","0 ORBCOMM-X","1 21576U 91050C   16014.75729048  .00000135  00000-0  56155-4 0  9995","2 21576  98.7457  22.8856 0004667  68.6899 291.4787 14.41329439286434","1991-050C","21576","7132.246","99.907","757.439","750.782"
